NORAD_CAT_ID,OBJECT_NAME,OBJECT_TYPE,EPOCH,MEAN_MOTION,ECCENTRICITY,INCLINATION,RA_OF_ASC_NODE,ARG_OF_PERICENTER,MEAN_ANOMALY,BSTAR,MEAN_MOTION_DOT,MEAN_MOTION_DDOT,TLE_LINE0,TLE_LINE1,TLE_LINE2,SEMIMAJOR_AXIS,PERIOD,APOGEE,PERIGEE,DECAYED
52693.0,STARLINK-3946,PAYLOAD,2022-11-17 14:48:08,15.0883461,0.0002383,53.2178,167.3766,42.3206,317.7969,5.4309e-05,5.76e-06,0.0,0 STARLINK-3946,1 52693U 22053AP  22321.61676366  .00000576  00000-0  54309-4 0  9991,2 52693  53.2178 167.3766 0002383  42.3206 317.7969 15.08834610 28370,6917.897,95.438,541.41,538.113,0.0
52693.0,STARLINK-3946,PAYLOAD,2022-11-18 08:17:22,15.08838541,0.0002416,53.2177,164.1055,43.5333,316.585,5.2577e-05,5.48e-06,0.0,0 STARLINK-3946,1 52693U 22053AP  22322.34540100  .00000548  00000-0  52577-4 0  9992,2 52693  53.2177 164.1055 0002416  43.5333 316.5850 15.08838541 28885,6917.885,95.438,541.4209999999998,538.078,0.0
52693.0,STARLINK-3946,PAYLOAD,2022-11-18 16:14:18,15.08843256,0.0002436,53.2177,162.6186,43.9801,316.1384,4.9204e-05,4.95e-06,0.0,0 STARLINK-3946,1 52693U 22053AP  22322.67659886  .00000495  00000-0  49204-4 0  9994,2 52693  53.2177 162.6186 0002436  43.9801 316.1384 15.08843256 28538,6917.87,95.437,541.4209999999998,538.05,0.0
52693.0,STARLINK-3946,PAYLOAD,2022-11-19 06:32:46,15.08844955,0.0002481,53.2175,159.942,44.552,315.5671,0.00010853,1.44e-05,0.0,0 STARLINK-3946,1 52693U 22053AP  22323.27275570  .00001440  00000-0  10853-3 0  9993,2 52693  53.2175 159.9420 0002481  44.5520 315.5671 15.08844955 29025,6917.865,95.437,541.447,538.014,0.0
52693.0,STARLINK-3946,PAYLOAD,2022-11-19 12:54:18,15.08843124,0.0002464,53.2176,158.7523,44.6179,315.5011,0.00015298,2.147e-05,0.0,0 STARLINK-3946,1 52693U 22053AP  22323.53771542  .00002147  00000-0  15298-3 0  9995,2 52693  53.2176 158.7523 0002464  44.6179 315.5011 15.08843124 29068,6917.871,95.437,541.44,538.031,0.0
52693.0,STARLINK-3946,PAYLOAD,2022-11-20 07:58:55,15.08850821,0.0002483,53.2174,155.1842,46.7543,313.3656,0.00016117,2.278e-05,0.0,0 STARLINK-3946,1 52693U 22053AP  22324.33258833  .00002278  00000-0  16117-3 0  9993,2 52693  53.2174 155.1842 0002483  46.7543 313.3656 15.08850821 28781,6917.847,95.437,541.43,537.995,0.0
52693.0,STARLINK-3946,PAYLOAD,2022-11-20 12:45:05,15.08839579,0.000248,53.2174,154.2925,47.095,313.025,5.5365e-05,5.93e-06,0.0,0 STARLINK-3946,1 52693U 22053AP  22324.53131703  .00000593  00000-0  55365-4 0  9998,2 52693  53.2174 154.2925 0002480  47.0950 313.0250 15.08839579 29219,6917.882,95.438,541.462,538.031,0.0
52693.0,STARLINK-3946,PAYLOAD,2022-11-20 19:06:38,15.08839337,0.0002493,53.2174,153.1028,47.2,312.9201,3.192e-05,2.2e-06,0.0,0 STARLINK-3946,1 52693U 22053AP  22324.79627746  .00000220  00000-0  31920-4 0  9991,2 52693  53.2174 153.1028 0002493  47.2000 312.9201 15.08839337 28858,6917.882,95.438,541.472,538.023,0.0
52693.0,STARLINK-3946,PAYLOAD,2022-11-21 07:49:43,15.08841719,0.0002715,53.2174,150.7239,47.335,312.7870000000001,2.907e-05,1.74e-06,0.0,0 STARLINK-3946,1 52693U 22053AP  22325.32619584  .00000174  00000-0  29070-4 0  9993,2 52693  53.2174 150.7239 0002715  47.3350 312.7870 15.08841719 29332,6917.875,95.437,541.618,537.862,0.0
52693.0,STARLINK-3946,PAYLOAD,2022-11-21 15:46:37,15.088778,0.0002803,53.2174,149.237,46.1332,313.9891,-0.00047741,-7.887e-05,0.0,0 STARLINK-3946,1 52693U 22053AP  22325.65738335 -.00007887  00000-0 -47741-3 0  9999,2 52693  53.2174 149.2370 0002803  46.1332 313.9891 15.08877800 28982,6917.765,95.435,541.569,537.691,0.0
52693.0,STARLINK-3946,PAYLOAD,2022-11-21 18:57:24,15.08846779,0.0002507,53.2175,148.6425,47.2624,312.8579,-3.2944e-05,-8.13e-06,0.0,0 STARLINK-3946,1 52693U 22053AP  22325.78987189 -.00000813  00000-0 -32944-4 0  9998,2 52693  53.2175 148.6425 0002507  47.2624 312.8579 15.08846779 29404,6917.86,95.437,541.4590000000002,537.99,0.0
52693.0,STARLINK-3946,PAYLOAD,2022-11-21 22:08:11,15.08847162,0.0002511,53.2175,148.0477,47.6116,312.5089,-2.8344e-05,-7.400000000000001e-06,0.0,0 STARLINK-3946,1 52693U 22053AP  22325.92235090 -.00000740  00000-0 -28344-4 0  9999,2 52693  53.2175 148.0477 0002511  47.6116 312.5089 15.08847162 29028,6917.858,95.437,541.461,537.986,0.0
52693.0,STARLINK-3946,PAYLOAD,2022-11-22 12:26:39,15.08839113,0.0002563,53.2176,145.3715,47.5215,312.5993,0.00010133,1.325e-05,0.0,0 STARLINK-3946,1 52693U 22053AP  22326.51851070  .00001325  00000-0  10133-3 0  9991,2 52693  53.2176 145.3715 0002563  47.5215 312.5993 15.08839113 29515,6917.8830000000025,95.438,541.521,537.975,0.0
52693.0,STARLINK-3946,PAYLOAD,2022-11-22 18:48:11,15.08840582,0.0002503,53.2178,144.1817,48.8714,311.2494,3.621e-05,2.88e-06,0.0,0 STARLINK-3946,1 52693U 22053AP  22326.78347143  .00000288  00000-0  36210-4 0  9993,2 52693  53.2178 144.1817 0002503  48.8714 311.2494 15.08840582 29557,6917.879,95.438,541.475,538.012,0.0
52693.0,STARLINK-3946,PAYLOAD,2022-11-23 12:17:27,15.08826768,0.0002504,53.2181,140.9115,48.4576,311.663,-5.3394e-05,-1.138e-05,0.0,0 STARLINK-3946,1 52693U 22053AP  22327.51212707 -.00001138  00000-0 -53394-4 0  9991,2 52693  53.2181 140.9115 0002504  48.4576 311.6630 15.08826768 29263,6917.920999999999,95.438,541.518,538.054,0.0
52693.0,STARLINK-3946,PAYLOAD,2022-11-23 18:39:00,15.08824764,0.0002454,53.2188,139.7222,48.7368,311.3835,7.1568e-05,8.5e-06,0.0,0 STARLINK-3946,1 52693U 22053AP  22327.77708727  .00000850  00000-0  71568-4 0  9992,2 52693  53.2188 139.7222 0002454  48.7368 311.3835 15.08824764 29708,6917.927,95.439,541.49,538.094,0.0
52693.0,STARLINK-3946,PAYLOAD,2022-11-24 10:32:51,15.08833593,0.0002573,53.2181,136.7478,51.5282,308.5941,-1.5798e-05,-5.400000000000002e-06,0.0,0 STARLINK-3946,1 52693U 22053AP  22328.43948712 -.00000540  00000-0 -15798-4 0  9997,2 52693  53.2181 136.7478 0002573  51.5282 308.5941 15.08833593 29807,6917.9,95.438,541.545,537.985,0.0
52693.0,STARLINK-3946,PAYLOAD,2022-11-24 12:08:14,15.08833588,0.0002535,53.2181,136.4504,47.264,312.8566,-1.9473e-05,-5.98e-06,0.0,0 STARLINK-3946,1 52693U 22053AP  22328.50572760 -.00000598  00000-0 -19473-4 0  9998,2 52693  53.2181 136.4504 0002535  47.2640 312.8566 15.08833588 29414,6917.9,95.438,541.519,538.011,0.0
52693.0,STARLINK-3946,PAYLOAD,2022-11-24 18:29:47,15.08836715,0.0002645,53.2183,135.2613,57.7724,302.3525,-1.5213e-05,-5.31e-06,0.0,0 STARLINK-3946,1 52693U 22053AP  22328.77068668 -.00000531  00000-0 -15213-4 0  9999,2 52693  53.2183 135.2613 0002645  57.7724 302.3525 15.08836715 29857,6917.89,95.438,541.585,537.9259999999998,0.0
52693.0,STARLINK-3946,PAYLOAD,2022-11-25 10:23:38,15.08833138,0.0002571,53.2182,132.2875,49.9374,310.1844,8.5766e-05,1.077e-05,0.0,0 STARLINK-3946,1 52693U 22053AP  22329.43308951  .00001077  00000-0  85766-4 0  9999,2 52693  53.2182 132.2875 0002571  49.9374 310.1844 15.08833138 29953,6917.901,95.438,541.545,537.988,0.0
52693.0,STARLINK-3946,PAYLOAD,2022-11-25 16:45:11,15.08836821,0.0002617,53.2184,131.0982,50.4894,309.6329,0.00011642,1.565e-05,0.0,0 STARLINK-3946,1 52693U 22053AP  22329.69804823  .00001565  00000-0  11642-3 0  9999,2 52693  53.2184 131.0982 0002617  50.4894 309.6329 15.08836821 29599,6917.89,95.438,541.566,537.945,0.0
52693.0,STARLINK-3946,PAYLOAD,2022-11-25 18:20:34,15.0883792,0.0002621,53.2184,130.8008,50.57,309.5524,0.00012368,1.6800000000000002e-05,0.0,0 STARLINK-3946,1 52693U 22053AP  22329.76428775  .00001680  00000-0  12368-3 0  9999,2 52693  53.2184 130.8008 0002621  50.5700 309.5524 15.08837920 30002,6917.887,95.438,541.565,537.939,0.0
52693.0,STARLINK-3946,PAYLOAD,2022-11-26 11:49:48,15.08845078,0.000266,53.2184,127.5299,52.0241,308.0991,0.00014292,1.987e-05,0.0,0 STARLINK-3946,1 52693U 22053AP  22330.49292317  .00001987  00000-0  14292-3 0  9990,2 52693  53.2184 127.5299 0002660  52.0241 308.0991 15.08845078 30114,6917.865,95.437,541.57,537.89,0.0
52693.0,STARLINK-3946,PAYLOAD,2022-11-26 15:00:34,15.08847064,0.0002669,53.2186,126.9353,52.3692,307.7542,0.00015585,2.193e-05,0.0,0 STARLINK-3946,1 52693U 22053AP  22330.62540151  .00002193  00000-0  15585-3 0  9993,2 52693  53.2186 126.9353 0002669  52.3692 307.7542 15.08847064 29733,6917.859,95.437,541.57,537.877,0.0
52693.0,STARLINK-3946,PAYLOAD,2022-11-26 19:46:43,15.0884974,0.000269,53.2185,126.0431,51.7683,308.3551,0.00016147,2.283e-05,0.0,0 STARLINK-3946,1 52693U 22053AP  22330.82411905  .00002283  00000-0  16147-3 0  9994,2 52693  53.2185 126.0431 0002690  51.7683 308.3551 15.08849740 30166,6917.851,95.437,541.577,537.855,0.0
52693.0,STARLINK-3946,PAYLOAD,2022-11-27 10:05:12,15.08845099,0.0002728,53.2184,123.3671,53.7428,306.3816,6.7315e-05,7.83e-06,0.0,0 STARLINK-3946,1 52693U 22053AP  22331.42028220  .00000783  00000-0  67315-4 0  9992,2 52693  53.2184 123.3671 0002728  53.7428 306.3816 15.08845099 29851,6917.865,95.437,541.617,537.8430000000002,0.0
52693.0,STARLINK-3946,PAYLOAD,2022-11-27 19:37:31,15.08844775,0.0002706,53.2179,121.5823,55.7531,304.3717,5.803e-05,6.35e-06,0.0,0 STARLINK-3946,1 52693U 22053AP  22331.81772107  .00000635  00000-0  58030-4 0  9995,2 52693  53.2179 121.5823 0002706  55.7531 304.3717 15.08844775 30318,6917.866,95.437,541.6030000000002,537.859,0.0
52693.0,STARLINK-3946,PAYLOAD,2022-11-28 16:17:31,15.08844344,0.0002716,53.2181,117.7163,56.2715,303.8536,-4.4913e-05,-1.003e-05,0.0,0 STARLINK-3946,1 52693U 22053AP  22332.67884029 -.00001003  00000-0 -44913-4 0  9994,2 52693  53.2181 117.7163 0002716  56.2715 303.8536 15.08844344 30041,6917.8669999999975,95.437,541.611,537.8530000000002,0.0
52693.0,STARLINK-3946,PAYLOAD,2022-11-29 09:46:45,15.08844676,0.000261,53.219,114.4458,55.5553,304.5685,9.4516e-05,1.216e-05,0.0,0 STARLINK-3946,1 52693U 22053AP  22333.40747415  .00001216  00000-0  94516-4 0  9991,2 52693  53.2190 114.4458 0002610  55.5553 304.5685 15.08844676 30554,6917.866,95.437,541.5369999999998,537.9259999999998,0.0
